     2.11           N: GPS NAV DATA                         RINEX VERSION / TYPE
teqc  2019Feb25                         20221121 12:28:06UTCPGM / RUN BY / DATE
OSX ker:10.11.6|Core i5|gcc 4.3 -m64|OSX ker:10.10+|=+      COMMENT
    1.0245D-08  7.4506D-09 -5.9605D-08 -5.9605D-08          ION ALPHA
    8.8064D+04  0.0000D+00 -1.9661D+05 -6.5536D+04          ION BETA
    9.313225746155D-10 2.664535259100D-15   503808     1552 DELTA-UTC: A0,A1,T,W
                                                            END OF HEADER
23 09 10  6 23 59 44.0 3.878045827150D-04-4.547473508865D-13 0.000000000000D+00
    2.200000000000D+01-9.862500000000D+01 4.459471469172D-09-1.470834904760D+00
   -5.181878805161D-06 6.391950300895D-03 3.321096301079D-06 5.153767576218D+03
    2.591840000000D+05-5.774199962616D-08-6.763565712289D-01-4.284083843231D-08
    9.696637244205D-01 3.197812500000D+02 2.985649381149D+00-8.309274686072D-09
   -3.342996392075D-10 1.000000000000D+00 1.552000000000D+03 0.000000000000D+00
    2.000000000000D+00 0.000000000000D+00-2.002343535423D-08 2.200000000000D+01
    2.561580000000D+05 4.000000000000D+00
31 09 10  6 23 59 44.0-6.334250792861D-05 5.684341886081D-13 0.000000000000D+00
    5.000000000000D+00-7.078125000000D+01 3.736584215159D-09 3.022226626796D+00
   -3.511086106300D-06 7.084586657584D-03 1.178681850433D-05 5.153806234360D+03
    2.591840000000D+05 2.607703208923D-08 3.633454841464D-01-5.587935447693D-09
    9.746294813443D-01 1.596250000000D+02-1.140004460207D+00-7.454953385875D-09
    1.392915163365D-10 1.000000000000D+00 1.552000000000D+03 0.000000000000D+00
    2.000000000000D+00 0.000000000000D+00-1.303851604462D-08 5.000000000000D+00
    2.561580000000D+05 4.000000000000D+00
